<?xml version="1.0" encoding="UTF-8"?>
<osm version="0.6" generator="lanelet2">
  <node id="1" lat="35.6762" lon="139.6503" version="1">
    <tag k="ele" v="0"/>
  </node>
  <node id="2" lat="35.6763" lon="139.6513" version="1">
    <tag k="ele" v="0"/>
  </node>
  <node id="3" lat="35.6764" lon="139.6523" version="1">
    <tag k="ele" v="0"/>
  </node>
  <node id="4" lat="35.6765" lon="139.6533" version="1">
    <tag k="ele" v="0"/>
  </node>
  
  <way id="10" version="1">
    <nd ref="1"/>
    <nd ref="2"/>
    <tag k="type" v="line_thin"/>
    <tag k="subtype" v="solid"/>
  </way>
  
  <way id="11" version="1">
    <nd ref="2"/>
    <nd ref="3"/>
    <tag k="type" v="line_thin"/>
    <tag k="subtype" v="solid"/>
  </way>
  
  <way id="12" version="1">
    <nd ref="3"/>
    <nd ref="4"/>
    <tag k="type" v="line_thin"/>
    <tag k="subtype" v="solid"/>
  </way>
  
  <relation id="20" version="1">
    <member type="way" ref="10" role="left"/>
    <member type="way" ref="11" role="centerline"/>
    <member type="way" ref="12" role="right"/>
    <tag k="type" v="lanelet"/>
    <tag k="subtype" v="road"/>
    <tag k="location" v="urban"/>
    <tag k="one_way" v="yes"/>
  </relation>
</osm>